[{"OBJECT_NAME":"STARLINK-31899","OBJECT_ID":"2024-097R","EPOCH":"2026-03-09T22:12:33.718464","MEAN_MOTION":15.2757838,"ECCENTRICITY":0.00014527,"INCLINATION":43.0034,"RA_OF_ASC_NODE":272.9595,"ARG_OF_PERICENTER":276.3659,"MEAN_ANOMALY":83.7027,"EPHEMERIS_TYPE":0,"CLASSIFICATION_TYPE":"U","NORAD_CAT_ID":59850,"ELEMENT_SET_NO":999,"REV_AT_EPOCH":10195,"BSTAR":-4.596282e-6,"MEAN_MOTION_DOT":-3.89e-6,"MEAN_MOTION_DDOT":0},{"OBJECT_NAME":"PELICAN-6","OBJECT_ID":"2025-276AP","EPOCH":"2026-03-09T16:58:12.890496","MEAN_MOTION":15.2637798,"ECCENTRICITY":0.0003569,"INCLINATION":97.4276,"RA_OF_ASC_NODE":144.2072,"ARG_OF_PERICENTER":157.8575,"MEAN_ANOMALY":202.2819,"EPHEMERIS_TYPE":0,"CLASSIFICATION_TYPE":"U","NORAD_CAT_ID":66703,"ELEMENT_SET_NO":999,"REV_AT_EPOCH":1533,"BSTAR":0.0029725783,"MEAN_MOTION_DOT":0.00077979,"MEAN_MOTION_DDOT":0}]
